CTC2_L_00392001-01
1 41300U 23782WP  26070.40847222  .00000000  00000+0  00000-0 0  9993
2 41300  95.0000   0.0000 0000000   0.0000   0.0000 12.90384021    15
CTC2_L_00392001-02
1 41301U 26318GG  26070.40847222  .00000000  00000+0  00000-0 0  9992
2 41301  95.0000   0.0000 0000000   0.0000  90.0000 12.90384021    15
CTC2_L_00392001-03
1 41302U 23027B   26070.40847222  .00000000  00000+0  00000-0 0  9997
2 41302  95.0000   0.0000 0000000   0.0000 180.0000 12.90384021    16
CTC2_L_00392001-04
1 41303U 24630XB  26070.40847222  .00000000  00000+0  00000-0 0  9999
2 41303  95.0000   0.0000 0000000   0.0000 270.0000 12.90384021    17
CTC2_L_00392002-01
1 41304U 22895SR  26070.40847222  .00000000  00000+0  00000-0 0  9991
2 41304  95.0000  12.0000 0000000   0.0000  12.0000 12.90384021    15
CTC2_L_00392002-02
1 41305U 23101HB  26070.40847222  .00000000  00000+0  00000-0 0  9993
2 41305  95.0000  12.0000 0000000   0.0000 102.0000 12.90384021    16
CTC2_L_00392002-03
1 41306U 23036XI  26070.40847222  .00000000  00000+0  00000-0 0  9991
2 41306  95.0000  12.0000 0000000   0.0000 192.0000 12.90384021    16
CTC2_L_00392002-04
1 41307U 23408RG  26070.40847222  .00000000  00000+0  00000-0 0  9995
2 41307  95.0000  12.0000 0000000   0.0000 282.0000 12.90384021    17
CTC2_L_00392003-01
1 41308U 24721WM  26070.40847222  .00000000  00000+0  00000-0 0  9995
2 41308  95.0000  24.0000 0000000   0.0000  24.0000 12.90384021    15
CTC2_L_00392003-02
1 41309U 24793HN  26070.40847222  .00000000  00000+0  00000-0 0  9995
2 41309  95.0000  24.0000 0000000   0.0000 114.0000 12.90384021    16
CTC2_L_00392003-03
1 41310U 24519LA  26070.40847222  .00000000  00000+0  00000-0 0  9993
2 41310  95.0000  24.0000 0000000   0.0000 204.0000 12.90384021    18
CTC2_L_00392003-04
1 41311U 24751TP  26070.40847222  .00000000  00000+0  00000-0 0  9992
2 41311  95.0000  24.0000 0000000   0.0000 294.0000 12.90384021    18
CTC2_L_00392004-01
1 41312U 26842LS  26070.40847222  .00000000  00000+0  00000-0 0  9996
2 41312  95.0000  36.0000 0000000   0.0000  36.0000 12.90384021    16
CTC2_L_00392004-02
1 41313U 24696QQ  26070.40847222  .00000000  00000+0  00000-0 0  9992
2 41313  95.0000  36.0000 0000000   0.0000 126.0000 12.90384021    17
CTC2_L_00392004-03
1 41314U 22874XG  26070.40847222  .00000000  00000+0  00000-0 0  9999
2 41314  95.0000  36.0000 0000000   0.0000 216.0000 12.90384021    18
CTC2_L_00392004-04
1 41315U 23467VN  26070.40847222  .00000000  00000+0  00000-0 0  9999
2 41315  95.0000  36.0000 0000000   0.0000 306.0000 12.90384021    19
CTC2_L_00392005-01
1 41316U 25673DZ  26070.40847222  .00000000  00000+0  00000-0 0  9991
2 41316  95.0000  48.0000 0000000   0.0000  48.0000 12.90384021    16
CTC2_L_00392005-02
1 41317U 26660HT  26070.40847222  .00000000  00000+0  00000-0 0  9999
2 41317  95.0000  48.0000 0000000   0.0000 138.0000 12.90384021    17
CTC2_L_00392005-03
1 41318U 25283WF  26070.40847222  .00000000  00000+0  00000-0 0  9990
2 41318  95.0000  48.0000 0000000   0.0000 228.0000 12.90384021    18
CTC2_L_00392005-04
1 41319U 26483FI  26070.40847222  .00000000  00000+0  00000-0 0  9994
2 41319  95.0000  48.0000 0000000   0.0000 318.0000 12.90384021    19
CTC2_L_00392006-01
1 41320U 25867CJ  26070.40847222  .00000000  00000+0  00000-0 0  9991
2 41320  95.0000  60.0000 0000000   0.0000  60.0000 12.90384021    19
CTC2_L_00392006-02
1 41321U 24556TM  26070.40847222  .00000000  00000+0  00000-0 0  9996
2 41321  95.0000  60.0000 0000000   0.0000 150.0000 12.90384021    10
CTC2_L_00392006-03
1 41322U 25637OC  26070.40847222  .00000000  00000+0  00000-0 0  9998
2 41322  95.0000  60.0000 0000000   0.0000 240.0000 12.90384021    11
CTC2_L_00392006-04
1 41323U 26941GD  26070.40847222  .00000000  00000+0  00000-0 0  9998
2 41323  95.0000  60.0000 0000000   0.0000 330.0000 12.90384021    12
CTC2_L_00392007-01
1 41324U 23268TV  26070.40847222  .00000000  00000+0  00000-0 0  9998
2 41324  95.0000  72.0000 0000000   0.0000  72.0000 12.90384021    19
CTC2_L_00392007-02
1 41325U 26301YH  26070.40847222  .00000000  00000+0  00000-0 0  9990
2 41325  95.0000  72.0000 0000000   0.0000 162.0000 12.90384021    10
CTC2_L_00392007-03
1 41326U 25732GG  26070.40847222  .00000000  00000+0  00000-0 0  9998
2 41326  95.0000  72.0000 0000000   0.0000 252.0000 12.90384021    11
CTC2_L_00392007-04
1 41327U 22058W   26070.40847222  .00000000  00000+0  00000-0 0  9997
2 41327  95.0000  72.0000 0000000   0.0000 342.0000 12.90384021    12
CTC2_L_00392008-01
1 41328U 22205YX  26070.40847222  .00000000  00000+0  00000-0 0  9992
2 41328  95.0000  84.0000 0000000   0.0000  84.0000 12.90384021    19
CTC2_L_00392008-02
1 41329U 25897JX  26070.40847222  .00000000  00000+0  00000-0 0  9993
2 41329  95.0000  84.0000 0000000   0.0000 174.0000 12.90384021    10
CTC2_L_00392008-03
1 41330U 25377NN  26070.40847222  .00000000  00000+0  00000-0 0  9998
2 41330  95.0000  84.0000 0000000   0.0000 264.0000 12.90384021    12
CTC2_L_00392008-04
1 41331U 23748AQ  26070.40847222  .00000000  00000+0  00000-0 0  9999
2 41331  95.0000  84.0000 0000000   0.0000 354.0000 12.90384021    13
CTC2_L_00392009-01
1 41332U 22072KY  26070.40847222  .00000000  00000+0  00000-0 0  9999
2 41332  95.0000  96.0000 0000000   0.0000  96.0000 12.90384021    10
CTC2_L_00392009-02
1 41333U 24556QD  26070.40847222  .00000000  00000+0  00000-0 0  9999
2 41333  95.0000  96.0000 0000000   0.0000 186.0000 12.90384021    11
CTC2_L_00392009-03
1 41334U 22428EQ  26070.40847222  .00000000  00000+0  00000-0 0  9996
2 41334  95.0000  96.0000 0000000   0.0000 276.0000 12.90384021    12
CTC2_L_00392009-04
1 41335U 24664NF  26070.40847222  .00000000  00000+0  00000-0 0  9991
2 41335  95.0000  96.0000 0000000   0.0000   6.0000 12.90384021    14
CTC2_L_00392010-01
1 41336U 22571GF  26070.40847222  .00000000  00000+0  00000-0 0  9997
2 41336  95.0000 108.0000 0000000   0.0000 108.0000 12.90384021    12
CTC2_L_00392010-02
1 41337U 23535AO  26070.40847222  .00000000  00000+0  00000-0 0  9999
2 41337  95.0000 108.0000 0000000   0.0000 198.0000 12.90384021    12
CTC2_L_00392010-03
1 41338U 26932EA  26070.40847222  .00000000  00000+0  00000-0 0  9994
2 41338  95.0000 108.0000 0000000   0.0000 288.0000 12.90384021    13
CTC2_L_00392010-04
1 41339U 22236PV  26070.40847222  .00000000  00000+0  00000-0 0  9998
2 41339  95.0000 108.0000 0000000   0.0000  18.0000 12.90384021    15
CTC2_L_00392011-01
1 41340U 24124VJ  26070.40847222  .00000000  00000+0  00000-0 0  9998
2 41340  95.0000 120.0000 0000000   0.0000 120.0000 12.90384021    15
CTC2_L_00392011-02
1 41341U 23231T   26070.40847222  .00000000  00000+0  00000-0 0  9997
2 41341  95.0000 120.0000 0000000   0.0000 210.0000 12.90384021    16
CTC2_L_00392011-03
1 41342U 24936ZS  26070.40847222  .00000000  00000+0  00000-0 0  9991
2 41342  95.0000 120.0000 0000000   0.0000 300.0000 12.90384021    17
CTC2_L_00392011-04
1 41343U 22879IA  26070.40847222  .00000000  00000+0  00000-0 0  9996
2 41343  95.0000 120.0000 0000000   0.0000  30.0000 12.90384021    18
CTC2_L_00392012-01
1 41344U 26619WE  26070.40847222  .00000000  00000+0  00000-0 0  9993
2 41344  95.0000 132.0000 0000000   0.0000 132.0000 12.90384021    15
CTC2_L_00392012-02
1 41345U 22544HK  26070.40847222  .00000000  00000+0  00000-0 0  9997
2 41345  95.0000 132.0000 0000000   0.0000 222.0000 12.90384021    16
CTC2_L_00392012-03
1 41346U 25181P   26070.40847222  .00000000  00000+0  00000-0 0  9998
2 41346  95.0000 132.0000 0000000   0.0000 312.0000 12.90384021    17
CTC2_L_00392012-04
1 41347U 26586ZA  26070.40847222  .00000000  00000+0  00000-0 0  9999
2 41347  95.0000 132.0000 0000000   0.0000  42.0000 12.90384021    18
CTC2_L_00392013-01
1 41348U 26461OU  26070.40847222  .00000000  00000+0  00000-0 0  9992
2 41348  95.0000 144.0000 0000000   0.0000 144.0000 12.90384021    15
CTC2_L_00392013-02
1 41349U 22557HH  26070.40847222  .00000000  00000+0  00000-0 0  9995
2 41349  95.0000 144.0000 0000000   0.0000 234.0000 12.90384021    16
CTC2_L_00392013-03
1 41350U 26903FI  26070.40847222  .00000000  00000+0  00000-0 0  9996
2 41350  95.0000 144.0000 0000000   0.0000 324.0000 12.90384021    18
CTC2_L_00392013-04
1 41351U 24687RA  26070.40847222  .00000000  00000+0  00000-0 0  9994
2 41351  95.0000 144.0000 0000000   0.0000  54.0000 12.90384021    19
CTC2_L_00392014-01
1 41352U 23824ZD  26070.40847222  .00000000  00000+0  00000-0 0  9997
2 41352  95.0000 156.0000 0000000   0.0000 156.0000 12.90384021    16
CTC2_L_00392014-02
1 41353U 24757ZU  26070.40847222  .00000000  00000+0  00000-0 0  9994
2 41353  95.0000 156.0000 0000000   0.0000 246.0000 12.90384021    17
CTC2_L_00392014-03
1 41354U 25017GU  26070.40847222  .00000000  00000+0  00000-0 0  9995
2 41354  95.0000 156.0000 0000000   0.0000 336.0000 12.90384021    18
CTC2_L_00392014-04
1 41355U 22834QB  26070.40847222  .00000000  00000+0  00000-0 0  9990
2 41355  95.0000 156.0000 0000000   0.0000  66.0000 12.90384021    19
CTC2_L_00392015-01
1 41356U 22524HR  26070.40847222  .00000000  00000+0  00000-0 0  9997
2 41356  95.0000 168.0000 0000000   0.0000 168.0000 12.90384021    16
CTC2_L_00392015-02
1 41357U 25693DE  26070.40847222  .00000000  00000+0  00000-0 0  9998
2 41357  95.0000 168.0000 0000000   0.0000 258.0000 12.90384021    17
CTC2_L_00392015-03
1 41358U 25449IY  26070.40847222  .00000000  00000+0  00000-0 0  9998
2 41358  95.0000 168.0000 0000000   0.0000 348.0000 12.90384021    18
CTC2_L_00392015-04
1 41359U 22007NJ  26070.40847222  .00000000  00000+0  00000-0 0  9996
2 41359  95.0000 168.0000 0000000   0.0000  78.0000 12.90384021    19
CTC2_L_00392016-01
1 41360U 26306QY  26070.40847222  .00000000  00000+0  00000-0 0  9994
2 41360  95.0000 180.0000 0000000   0.0000 180.0000 12.90384021    19
CTC2_L_00392016-02
1 41361U 22509IY  26070.40847222  .00000000  00000+0  00000-0 0  9996
2 41361  95.0000 180.0000 0000000   0.0000 270.0000 12.90384021    10
